OBJECT_NAME,OBJECT_ID,EPOCH,MEAN_MOTION,ECCENTRICITY,INCLINATION,RA_OF_ASC_NODE,ARG_OF_PERICENTER,MEAN_ANOMALY,EPHEMERIS_TYPE,CLASSIFICATION_TYPE,NORAD_CAT_ID,ELEMENT_SET_NO,REV_AT_EPOCH,BSTAR,MEAN_MOTION_DOT,MEAN_MOTION_DDOT
INTELSAT 21 (IS-21),2012-045A,2026-06-19T21:09:22.913280,1.00272499,.00014286,0.0182,15.5881,83.7538,68.1019,0,U,38749,999,5055,0,-.29E-5,0
ASTRA 2F,2012-051A,2026-06-19T18:53:48.501888,1.00271434,.00016311,0.0560,254.8236,280.6910,44.1097,0,U,38778,999,4116,0,.144E-5,0
GSAT-10,2012-051B,2026-06-19T17:08:21.996672,1.00272197,.00078054,0.0735,261.5699,186.6317,159.8354,0,U,38779,999,5012,0,-.171E-5,0
INTELSAT 23 (IS-23),2012-057A,2026-06-19T05:29:59.907840,1.00267375,.00001343,0.0099,325.5761,86.5042,244.8525,0,U,38867,999,4997,0,-.291E-5,0
BEIDOU-2 G6,2012-059A,2026-06-19T17:02:03.598368,1.00271500,.00096327,4.4288,73.4979,324.3686,209.6174,0,U,38953,999,4993,0,-.183E-5,0
LUCH-5B,2012-061A,2026-06-18T21:24:08.583264,1.00272094,.0002465,10.4892,49.8655,150.1855,11.8366,0,U,38977,999,4962,0,-.148E-5,0
YAMAL 300K,2012-061B,2026-06-20T06:16:35.956128,1.00269892,.0001077,0.0163,299.7185,322.3586,283.5026,0,U,38978,999,4966,0,.66E-6,0
STAR ONE C3,2012-062A,2026-06-19T21:04:30.880416,1.00267879,.00024811,0.0193,6.1551,95.7387,47.3461,0,U,38991,999,4979,0,0,0
EUTELSAT 21B,2012-062B,2026-06-19T20:12:38.611584,1.00268835,.00030843,0.0652,350.1032,88.2997,154.4388,0,U,38992,999,4985,0,.124E-5,0
ECHOSTAR 16,2012-065A,2026-06-19T19:25:43.603680,1.00269271,.00021682,0.0178,15.5451,70.1698,52.2411,0,U,39008,999,4967,0,-.287E-5,0
ZHONGXING-12,2012-067A,2026-06-19T21:50:47.912064,1.00271131,.00027619,0.0453,91.3557,348.6027,243.3615,0,U,39017,999,4953,0,-.212E-5,0
EUTELSAT 70B,2012-069A,2026-06-19T21:45:34.852896,1.00271872,.00038798,0.0674,21.0654,59.6588,224.2840,0,U,39020,999,4953,0,-.49E-6,0
YAMAL 402,2012-070A,2026-06-20T04:32:09.921408,1.00271033,.0003784,1.2737,84.1208,3.0184,304.1957,0,U,39022,999,4942,0,.81E-6,0
SKYNET 5D,2012-075A,2026-06-19T18:15:33.177888,1.00271606,.0003617,0.0658,356.7490,99.7745,138.1088,0,U,39034,999,4918,0,.94E-6,0
MEXSAT 3,2012-075B,2026-06-19T20:53:01.981248,1.00266290,.0001451,0.0187,23.1058,49.5386,33.9046,0,U,39035,999,708,0,0,0
TDRS 11,2013-004A,2026-06-19T21:54:00.188352,1.00270452,.00053413,3.5245,31.3016,21.5576,9.3400,0,U,39070,999,4672,0,.72E-6,0
AMAZONAS 3,2013-006A,2026-06-19T21:08:30.496992,1.00271611,.00020685,0.0311,211.7522,279.8970,32.5828,0,U,39078,999,4494,0,-.288E-5,0
AZERSPACE 1,2013-006B,2026-06-19T19:56:16.971072,1.00271506,.00014181,0.0211,59.7527,58.5128,134.8254,0,U,39079,999,4883,0,.128E-5,0
SBIRS GEO-2 (USA 241),2013-011A,2026-06-19T12:38:23.602848,1.00271467,.0002112,4.4943,52.5095,28.8130,326.2266,0,U,39120,999,4855,0,-.294E-5,0
EUTELSAT 117 WEST A,2013-012A,2026-06-19T20:52:24.540672,1.00271966,.0002781,0.0211,37.0795,51.3933,15.9089,0,U,39122,999,4846,0,-.18E-6,0
ANIK G1,2013-014A,2026-06-19T20:55:09.277824,1.00271651,.00016109,0.0401,271.6886,171.3078,31.5603,0,U,39127,999,4828,0,-.79E-6,0
ZHONGXING-11,2013-020A,2026-06-20T01:19:06.574080,1.00274001,.0002438,0.0321,301.0822,126.7199,318.1344,0,U,39157,999,4792,0,-.296E-5,0
EUTELSAT 7B,2013-022A,2026-06-19T18:02:31.707168,1.00270088,.00044529,0.0642,356.8833,39.1157,149.6000,0,U,39163,999,4797,0,.42E-6,0
WGS F5 (USA 243),2013-024A,2026-06-19T21:00:38.640672,1.00270480,.00003139,0.0182,2.9023,324.8575,202.9914,0,U,39168,999,4720,0,0,0
SES-6,2013-026A,2026-06-19T04:07:43.256352,1.00270752,.00026395,0.0203,330.3089,141.7109,176.7967,0,U,39172,999,4774,0,-.267E-5,0
IRNSS-1A,2013-034A,2026-06-18T21:29:26.733984,1.00275723,.00175894,35.7241,63.8469,183.2529,37.3106,0,U,39199,999,4738,0,.51E-6,0
MUOS-2,2013-036A,2026-06-19T20:32:18.966912,1.00273635,.0051211,5.0002,45.5328,177.3939,165.2031,0,U,39206,999,4721,0,-.2E-6,0
ALPHASAT,2013-038A,2026-06-19T22:41:26.561184,1.00272087,.00017739,2.9988,1.3945,89.1145,182.8690,0,U,39215,999,4404,0,.127E-5,0
INSAT-3D,2013-038B,2026-06-19T20:20:05.139744,1.00268139,.00006148,1.9340,82.5091,325.8373,294.2202,0,U,39216,999,4710,0,-.345E-5,0
WGS F6 (USA 244),2013-041A,2026-06-19T17:21:54.444384,1.00272238,.00001649,0.0182,14.7107,12.9196,5.5878,0,U,39222,999,4608,0,.83E-6,0
ES'HAIL 1,2013-044A,2026-06-19T19:50:25.033632,1.00269842,.00019326,0.0467,355.5484,85.3041,150.2678,0,U,39233,999,4665,0,.137E-5,0
GSAT-7,2013-044B,2026-06-19T23:00:50.944608,1.00270835,.00029921,0.0909,92.9687,190.8911,43.4835,0,U,39234,999,4528,0,-.82E-6,0
