INTELSAT 21 (IS-21)     
1 38749U 12045A   26170.88151520 -.00000290  00000+0  00000+0 0  9999
2 38749   0.0182  15.5881 0001428  83.7538  68.1019  1.00272499 50555
ASTRA 2F                
1 38778U 12051A   26170.78736692  .00000144  00000+0  00000+0 0  9993
2 38778   0.0560 254.8236 0001631 280.6910  44.1097  1.00271434 41162
GSAT-10                 
1 38779U 12051B   26170.71414348 -.00000171  00000+0  00000+0 0  9999
2 38779   0.0735 261.5699 0007805 186.6317 159.8354  1.00272197 50123
INTELSAT 23 (IS-23)     
1 38867U 12057A   26170.22916560 -.00000291  00000+0  00000+0 0  9995
2 38867   0.0099 325.5761 0000134  86.5042 244.8525  1.00267375 49974
BEIDOU-2 G6             
1 38953U 12059A   26170.70976387 -.00000183  00000+0  00000+0 0  9999
2 38953   4.4288  73.4979 0009632 324.3686 209.6174  1.00271500 49937
LUCH-5B                 
1 38977U 12061A   26169.89176601 -.00000148  00000+0  00000+0 0  9998
2 38977  10.4892  49.8655 0002465 150.1855  11.8366  1.00272094 49620
YAMAL 300K              
1 38978U 12061B   26171.26152727  .00000066  00000+0  00000+0 0  9994
2 38978   0.0163 299.7185 0001077 322.3586 283.5026  1.00269892 49660
STAR ONE C3             
1 38991U 12062A   26170.87813519  .00000000  00000+0  00000+0 0  9997
2 38991   0.0193   6.1551 0002481  95.7387  47.3461  1.00267879 49791
EUTELSAT 21B            
1 38992U 12062B   26170.84211356  .00000124  00000+0  00000+0 0  9993
2 38992   0.0652 350.1032 0003084  88.2997 154.4388  1.00268835 49850
ECHOSTAR 16             
1 39008U 12065A   26170.80953245 -.00000287  00000+0  00000+0 0  9992
2 39008   0.0178  15.5451 0002168  70.1698  52.2411  1.00269271 49676
ZHONGXING-12            
1 39017U 12067A   26170.91027676 -.00000212  00000+0  00000+0 0  9994
2 39017   0.0453  91.3557 0002761 348.6027 243.3615  1.00271131 49531
EUTELSAT 70B            
1 39020U 12069A   26170.90665339 -.00000049  00000+0  00000+0 0  9991
2 39020   0.0674  21.0654 0003879  59.6588 224.2840  1.00271872 49530
YAMAL 402               
1 39022U 12070A   26171.18900372  .00000081  00000+0  00000+0 0  9990
2 39022   1.2737  84.1208 0003784   3.0184 304.1957  1.00271033 49424
SKYNET 5D               
1 39034U 12075A   26170.76080067  .00000094  00000+0  00000+0 0  9995
2 39034   0.0658 356.7490 0003617  99.7745 138.1088  1.00271606 49186
MEXSAT 3                
1 39035U 12075B   26170.87016182  .00000000  00000+0  00000+0 0  9992
2 39035   0.0187  23.1058 0001451  49.5386  33.9046  1.00266290  7089
TDRS 11                 
1 39070U 13004A   26170.91250218  .00000072  00000+0  00000+0 0  9998
2 39070   3.5245  31.3016 0005341  21.5576   9.3400  1.00270452 46729
AMAZONAS 3              
1 39078U 13006A   26170.88090853 -.00000288  00000+0  00000+0 0  9991
2 39078   0.0311 211.7522 0002068 279.8970  32.5828  1.00271611 44940
AZERSPACE 1             
1 39079U 13006B   26170.83075198  .00000128  00000+0  00000+0 0  9994
2 39079   0.0211  59.7527 0001418  58.5128 134.8254  1.00271506 48834
SBIRS GEO-2 (USA 241)   
1 39120U 13011A   26170.52666207 -.00000294  00000+0  00000+0 0  9995
2 39120   4.4943  52.5095 0002112  28.8130 326.2266  1.00271467 48552
EUTELSAT 117 WEST A     
1 39122U 13012A   26170.86972848 -.00000018  00000+0  00000+0 0  9990
2 39122   0.0211  37.0795 0002781  51.3933  15.9089  1.00271966 48462
ANIK G1                 
1 39127U 13014A   26170.87163516 -.00000079  00000+0  00000+0 0  9999
2 39127   0.0401 271.6886 0001610 171.3078  31.5603  1.00271651 48285
ZHONGXING-11            
1 39157U 13020A   26171.05493720 -.00000296  00000+0  00000+0 0  9994
2 39157   0.0321 301.0822 0002438 126.7199 318.1344  1.00274001 47922
EUTELSAT 7B             
1 39163U 13022A   26170.75175587  .00000042  00000+0  00000+0 0  9995
2 39163   0.0642 356.8833 0004452  39.1157 149.6000  1.00270088 47976
WGS F5 (USA 243)        
1 39168U 13024A   26170.87544723  .00000000  00000+0  00000+0 0  9991
2 39168   0.0182   2.9023 0000313 324.8575 202.9914  1.00270480 47209
SES-6                   
1 39172U 13026A   26170.17202843 -.00000267  00000+0  00000+0 0  9991
2 39172   0.0203 330.3089 0002639 141.7109 176.7967  1.00270752 47747
IRNSS-1A                
1 39199U 13034A   26169.89544831  .00000051  00000+0  00000+0 0  9992
2 39199  35.7241  63.8469 0017589 183.2529  37.3106  1.00275723 47380
MUOS-2                  
1 39206U 13036A   26170.85577508 -.00000020  00000+0  00000+0 0  9995
2 39206   5.0002  45.5328 0051211 177.3939 165.2031  1.00273635 47214
ALPHASAT                
1 39215U 13038A   26170.94544631  .00000127  00000+0  00000+0 0  9995
2 39215   2.9988   1.3945 0001773  89.1145 182.8690  1.00272087 44049
INSAT-3D                
1 39216U 13038B   26170.84728171 -.00000345  00000+0  00000+0 0  9991
2 39216   1.9340  82.5091 0000614 325.8373 294.2202  1.00268139 47100
WGS F6 (USA 244)        
1 39222U 13041A   26170.72354681  .00000083  00000+0  00000+0 0  9998
2 39222   0.0182  14.7107 0000164  12.9196   5.5878  1.00272238 46086
ES'HAIL 1               
1 39233U 13044A   26170.82667863  .00000137  00000+0  00000+0 0  9993
2 39233   0.0467 355.5484 0001932  85.3041 150.2678  1.00269842 46651
GSAT-7                  
1 39234U 13044B   26170.95892297 -.00000082  00000+0  00000+0 0  9999
2 39234   0.0909  92.9687 0002992 190.8911  43.4835  1.00270835 45285
